NORAD_CAT_ID,OBJECT_NAME,OBJECT_TYPE,EPOCH,MEAN_MOTION,ECCENTRICITY,INCLINATION,RA_OF_ASC_NODE,ARG_OF_PERICENTER,MEAN_ANOMALY,BSTAR,MEAN_MOTION_DOT,MEAN_MOTION_DDOT,TLE_LINE0,TLE_LINE1,TLE_LINE2,SEMIMAJOR_AXIS,PERIOD,APOGEE,PERIGEE,DECAYED
54759.0,STARLINK-5215,PAYLOAD,2023-09-26 20:05:26,15.0883182,0.0001237,53.2157,96.4935,98.0783,262.0349,-3.9024e-05,-9.09e-06,0.0,0 STARLINK-5215,1 54759U 22175B   23269.83711125 -.00000909  00000-0 -39024-4 0  9999,2 54759  53.2157  96.4935 0001237  98.0783 262.0349 15.08831820 44896,6917.905,95.438,540.626,538.915,0.0
54759.0,STARLINK-5215,PAYLOAD,2023-09-27 10:23:54,15.08837873,0.0001217,53.2156,93.8171,92.5973,267.5159,7.7171e-05,9.4e-06,0.0,0 STARLINK-5215,1 54759U 22175B   23270.43327229  .00000940  00000-0  77171-4 0  9993,2 54759  53.2156  93.8171 0001217  92.5973 267.5159 15.08837873 44989,6917.887,95.438,540.594,538.91,0.0
54759.0,STARLINK-5215,PAYLOAD,2023-09-27 19:56:13,15.08844236,0.0001247,53.2155,92.0331,91.5205,268.593,0.00029589,4.425e-05,0.0,0 STARLINK-5215,1 54759U 22175B   23270.83071148  .00004425  00000-0  29589-3 0  9994,2 54759  53.2155  92.0331 0001247  91.5205 268.5930 15.08844236 42883,6917.867,95.437,540.595,538.87,0.0
54759.0,STARLINK-5215,PAYLOAD,2023-09-28 11:50:04,15.08844489,0.0001299,53.2147,89.0612,90.4887,269.6254,0.00028366,4.23e-05,0.0,0 STARLINK-5215,1 54759U 22175B   23271.49311262  .00004230  00000-0  28366-3 0  9997,2 54759  53.2147  89.0612 0001299  90.4887 269.6254 15.08844489 45146,6917.867,95.437,540.63,538.833,0.0
54759.0,STARLINK-5215,PAYLOAD,2023-09-28 18:11:37,15.08851699,0.0001254,53.2144,87.872,93.5282,266.5853,0.00034598,5.224e-05,0.0,0 STARLINK-5215,1 54759U 22175B   23271.75806890  .00005224  00000-0  34598-3 0  9990,2 54759  53.2144  87.8720 0001254  93.5282 266.5853 15.08851699 45189,6917.845,95.437,540.577,538.842,0.0
54759.0,STARLINK-5215,PAYLOAD,2023-09-29 18:02:23,15.08852167,0.0001459,53.215,83.4134,63.0037,297.1104,0.000209,3.041e-05,0.0,0 STARLINK-5215,1 54759U 22175B   23272.75166640  .00003041  00000-0  20900-3 0  9990,2 54759  53.2150  83.4134 0001459  63.0037 297.1104 15.08852167 43171,6917.843,95.437,540.718,538.699,0.0
54759.0,STARLINK-5215,PAYLOAD,2023-09-29 19:37:46,15.0885516,0.0001319,53.2153,83.1145,77.7508,282.3632,0.00025757,3.815e-05,0.0,0 STARLINK-5215,1 54759U 22175B   23272.81790388  .00003815  00000-0  25757-3 0  9993,2 54759  53.2153  83.1145 0001319  77.7508 282.3632 15.08855160 45342,6917.834,95.437,540.612,538.787,0.0
54759.0,STARLINK-5215,PAYLOAD,2023-09-30 17:53:10,15.08843921,0.0001308,53.2167,78.9477,98.3702,261.7438,-5.6831e-05,-1.192e-05,0.0,0 STARLINK-5215,1 54759U 22175B   23273.74526552 -.00001192  00000-0 -56831-4 0  9992,2 54759  53.2167  78.9477 0001308  98.3702 261.7438 15.08843921 43323,6917.868,95.437,540.638,538.829,0.0
54759.0,STARLINK-5215,PAYLOAD,2023-10-01 11:22:25,15.08839885,0.0001386,53.2176,75.6771,93.5931,266.522,2.9784e-05,1.86e-06,0.0,0 STARLINK-5215,1 54759U 22175B   23274.47390958  .00000186  00000-0  29784-4 0  9999,2 54759  53.2176  75.6771 0001386  93.5931 266.5220 15.08839885 45598,6917.881,95.438,540.705,538.787,0.0
54759.0,STARLINK-5215,PAYLOAD,2023-10-01 17:43:57,15.08844893,0.0001329,53.2173,74.4889,82.7554,277.3589,6.1622e-05,6.93e-06,0.0,0 STARLINK-5215,1 54759U 22175B   23274.73886520  .00000693  00000-0  61622-4 0  9993,2 54759  53.2173  74.4889 0001329  82.7554 277.3589 15.08844893 45638,6917.865,95.437,540.65,538.811,0.0
54759.0,STARLINK-5215,PAYLOAD,2023-10-02 03:16:16,15.08843449,0.0001161,53.2165,72.7069,85.8055,274.3069,-9.231e-06,-4.35e-06,0.0,0 STARLINK-5215,1 54759U 22175B   23275.13630668 -.00000435  00000-0 -92310-5 0  9993,2 54759  53.2165  72.7069 0001161  85.8055 274.3069 15.08843449 43537,6917.87,95.437,540.538,538.932,0.0
54759.0,STARLINK-5215,PAYLOAD,2023-10-02 19:10:08,15.088414,0.0001451,53.2177,69.7309,82.3626,277.7531,9.4845e-05,1.222e-05,0.0,0 STARLINK-5215,1 54759U 22175B   23275.79870888  .00001222  00000-0  94845-4 0  9992,2 54759  53.2177  69.7309 0001451  82.3626 277.7531 15.08841400 45797,6917.876,95.437,540.745,538.737,0.0
54759.0,STARLINK-5215,PAYLOAD,2023-10-03 03:07:04,15.08836729,0.00014,53.218,68.2435,88.3384,271.7768,6.7905e-05,7.93e-06,0.0,0 STARLINK-5215,1 54759U 22175B   23276.12991269  .00000793  00000-0  67905-4 0  9996,2 54759  53.2180  68.2435 0001400  88.3384 271.7768 15.08836729 43686,6917.89,95.438,540.724,538.787,0.0
54759.0,STARLINK-5215,PAYLOAD,2023-10-03 14:14:46,15.08836569,0.0001446,53.2172,66.1639,83.1448,276.9709,2.3204e-05,8.1e-07,0.0,0 STARLINK-5215,1 54759U 22175B   23276.59359633  .00000081  00000-0  23204-4 0  9994,2 54759  53.2172  66.1639 0001446  83.1448 276.9709 15.08836569 45916,6917.891,95.438,540.756,538.756,0.0
54759.0,STARLINK-5215,PAYLOAD,2023-10-03 17:25:32,15.08839437,0.0001388,53.2173,65.5694,82.1979,277.9171,4.4867e-05,4.26e-06,0.0,0 STARLINK-5215,1 54759U 22175B   23276.72607389  .00000426  00000-0  44867-4 0  9994,2 54759  53.2173  65.5694 0001388  82.1979 277.9171 15.08839437 45937,6917.882,95.438,540.707,538.787,0.0
54759.0,STARLINK-5215,PAYLOAD,2023-10-04 09:19:23,15.0884221,0.0001505,53.2184,62.5957,88.6726,271.4438,0.00010934,1.453e-05,0.0,0 STARLINK-5215,1 54759U 22175B   23277.38847134  .00001453  00000-0  10934-3 0  9999,2 54759  53.2184  62.5957 0001505  88.6726 271.4438 15.08842210 43879,6917.874,95.437,540.78,538.697,0.0
54759.0,STARLINK-5215,PAYLOAD,2023-10-04 14:05:33,15.0884463,0.00013,53.217,61.7037,85.7824,274.3316,0.00013819,1.912e-05,0.0,0 STARLINK-5215,1 54759U 22175B   23277.58718850  .00001912  00000-0  13819-3 0  9998,2 54759  53.2170  61.7037 0001300  85.7824 274.3316 15.08844630 46063,6917.866,95.437,540.631,538.832,0.0
54759.0,STARLINK-5215,PAYLOAD,2023-10-04 17:16:18,15.08861245,0.0001299,53.2173,61.1085,93.4718,266.6423,6.3622e-06,-1.87e-06,0.0,0 STARLINK-5215,1 54759U 22175B   23277.71966151 -.00000187  00000-0  63622-5 0  9995,2 54759  53.2173  61.1085 0001299  93.4718 266.6423 15.08861245 43924,6917.815,95.436,540.579,538.782,0.0
54759.0,STARLINK-5215,PAYLOAD,2023-10-05 02:48:38,15.08846792,0.0001219,53.2172,59.3247,92.1757,267.9374,2.6429e-05,1.33e-06,0.0,0 STARLINK-5215,1 54759U 22175B   23278.11710840  .00000133  00000-0  26429-4 0  9995,2 54759  53.2172  59.3247 0001219  92.1757 267.9374 15.08846792 43988,6917.86,95.437,540.568,538.881,0.0
54759.0,STARLINK-5215,PAYLOAD,2023-10-05 13:56:20,15.08834736,0.0001363,53.218,57.2429,91.2974,268.8174,7.6262e-05,9.26e-06,0.0,0 STARLINK-5215,1 54759U 22175B   23278.58079779  .00000926  00000-0  76262-4 0  9995,2 54759  53.2180  57.2429 0001363  91.2974 268.8174 15.08834736 46219,6917.896,95.438,540.704,538.819,0.0
54759.0,STARLINK-5215,PAYLOAD,2023-10-05 17:07:06,15.08846479,0.0001397,53.2171,56.649,86.9156,273.1996,9.2731e-05,1.188e-05,0.0,0 STARLINK-5215,1 54759U 22175B   23278.71327035  .00001188  00000-0  92731-4 0  9991,2 54759  53.2171  56.6490 0001397  86.9156 273.1996 15.08846479 46230,6917.861,95.437,540.692,538.759,0.0
54759.0,STARLINK-5215,PAYLOAD,2023-10-06 09:00:58,15.08836789,0.0001543,53.2176,53.674,79.7781,280.3385,-7.7259e-05,-1.517e-05,0.0,0 STARLINK-5215,1 54759U 22175B   23279.37567718 -.00001517  00000-0 -77259-4 0  9994,2 54759  53.2176  53.6740 0001543  79.7781 280.3385 15.08836789 44173,6917.89,95.438,540.823,538.688,0.0
54759.0,STARLINK-5215,PAYLOAD,2023-10-06 13:47:07,15.0883712,0.0001373,53.2173,52.7821,78.6136,281.5011,-3.8457e-05,-9e-06,0.0,0 STARLINK-5215,1 54759U 22175B   23279.57439747 -.00000900  00000-0 -38457-4 0  9998,2 54759  53.2173  52.7821 0001373  78.6136 281.5011 15.08837120 46365,6917.889,95.438,540.704,538.804,0.0
54759.0,STARLINK-5215,PAYLOAD,2023-10-06 15:22:31,15.08839355,0.0001413,53.2172,52.4845,79.1589,280.9562,4.8293e-06,-2.11e-06,0.0,0 STARLINK-5215,1 54759U 22175B   23279.64063681 -.00000211  00000-0  48293-5 0  9990,2 54759  53.2172  52.4845 0001413  79.1589 280.9562 15.08839355 46377,6917.882,95.438,540.725,538.77,0.0
54759.0,STARLINK-5215,PAYLOAD,2023-10-07 02:30:12,15.08843747,0.0001364,53.2173,50.4027,87.0146,273.1002,5.4961e-05,5.87e-06,0.0,0 STARLINK-5215,1 54759U 22175B   23280.10431510  .00000587  00000-0  54961-4 0  9996,2 54759  53.2173  50.4027 0001364  87.0146 273.1002 15.08843747 44281,6917.869,95.437,540.678,538.79,0.0
54759.0,STARLINK-5215,PAYLOAD,2023-10-07 13:37:55,15.08840377,0.0001436,53.2175,48.3215,85.3586,274.757,0.00021939,3.205e-05,0.0,0 STARLINK-5215,1 54759U 22175B   23280.56799947  .00003205  00000-0  21939-3 0  9995,2 54759  53.2175  48.3215 0001436  85.3586 274.7570 15.08840377 46518,6917.879,95.438,540.738,538.751,0.0
54759.0,STARLINK-5215,PAYLOAD,2023-10-07 18:24:04,15.08852014,0.0001553,53.2174,47.4279,90.4343,269.6827,0.00025167,3.721e-05,0.0,0 STARLINK-5215,1 54759U 22175B   23280.76671360  .00003721  00000-0  25167-3 0  9995,2 54759  53.2174  47.4279 0001553  90.4343 269.6827 15.08852014 46547,6917.844,95.437,540.783,538.634,0.0
54759.0,STARLINK-5215,PAYLOAD,2023-10-08 13:28:42,15.08844616,0.0001518,53.2176,43.8605,85.1791,274.9375,0.00018254,2.619e-05,0.0,0 STARLINK-5215,1 54759U 22175B   23281.56159788  .00002619  00000-0  18254-3 0  9993,2 54759  53.2176  43.8605 0001518  85.1791 274.9375 15.08844616 46660,6917.866,95.437,540.781,538.681,0.0
54759.0,STARLINK-5215,PAYLOAD,2023-10-08 15:04:04,15.08851189,0.0001464,53.2177,43.5631,83.5574,276.5585,0.00028011,4.174e-05,0.0,0 STARLINK-5215,1 54759U 22175B   23281.62783472  .00004174  00000-0  28011-3 0  9993,2 54759  53.2177  43.5631 0001464  83.5574 276.5585 15.08851189 44514,6917.846,95.437,540.724,538.698,0.0
54759.0,STARLINK-5215,PAYLOAD,2023-10-09 08:33:19,15.08841654,0.0001508,53.2173,40.2916,80.9289,279.1874,8.4659e-05,1.06e-05,0.0,0 STARLINK-5215,1 54759U 22175B   23282.35647780  .00001060  00000-0  84659-4 0  9997,2 54759  53.2173  40.2916 0001508  80.9289 279.1874 15.08841654 44621,6917.875,95.437,540.784,538.697,0.0
